{"fetched_at":"2026-03-30T06:02:59Z","count":15439,"tles":[{"name":"STARLINK-4586","line1":"1 53636U 22104BA  26087.87231971  .00025945  00000+0  16399-2 0  9997","line2":"2 53636  53.2169 137.8316 0001443  96.3307 263.7849 15.08892161199122","category":"Starlink"}]}